name,address,lat,lon
,"670 HIGHWAY 23 NW SUWANEE, GA 30024-0000",33.20476,-81.9365
,"4521 CENTERVILLE HIGHWAY SNELLVILLE, GA 30039-0000",33.77555,-84.04995
,"4515 LENORA CHURCH RD SNELLVILLE, GA 30039-0000",33.79112,-84.00154
,"3150 SPAIN RD SNELLVILLE, GA 30039-0000",33.80332,-84.06889
,"3857 CENTERVILLE ROSEBUD RD SNELLVILLE, GA 30039-0000",33.8046,-84.03938
,"3895 ZOAR CHURCH RD SNELLVILLE, GA 30039-0000",33.80997,-84.04528
,"2500 ROCKBRIDGE RD STONE MOUNTAIN, GA 30087-0000",33.81348,-84.09922
,"4100 ROSEBUD RD LOGANVILLE, GA 30052-0000",33.82102,-83.9597
,"3115 CENTERVILLE HWY SNELLVILLE, GA 30039-0000",33.82261,-84.03572
,"4805 STONE MOUNTAIN HWY LILBURN, GA 30047-0000",33.82803,-84.09614
,"2400 ROSS RD SNELLVILLE, GA 30039-0000",33.82824,-84.07589
,"2306 BETHANY CHURCH RD SNELLVILLE, GA 30039-0000",33.83388,-84.06885
,"1405 ROCKBRIDGE RD STONE MOUNTAIN, GA 30087-0000",33.83686,-84.13024
,"5485 FIVE FORKS TRICKUM RD STONE MOUNTAIN, GA 30087-0000",33.83883,-84.13329
,"2500 SAWYER PKWY SNELLVILLE, GA 30078-0000",33.8414,-84.0085
,"1063 ROCKBRIDGE RD STONE MOUNTAIN, GA 30087-0000",33.84509,-84.13329
,"5050 FIVE FORKS TRICKUM RD LILBURN, GA 30047-0000",33.84724,-84.11726
,"3400 ROSEBUD RD LOGANVILLE, GA 30052-0000",33.84734,-83.95761
,"1826 KILLIAN HILL RD SW LILBURN, GA 30047-0000",33.84859,-84.07348
,"2503 SKYLAND DR SNELLVILLE, GA 30078-0000",33.8519,-84.00962
,"2208 MAIN ST E SNELLVILLE, GA 30078-0000",33.85436,-84.00435
,"2428 MAIN ST E SNELLVILLE, GA 30078-0000",33.8561,-84.01623
,"1400 KILLIAN HILL RD LILBURN, GA 30047-0000",33.85981,-84.08132
,"1200 ATHENS HWY GRAYSON, GA 30017-0000",33.8625,-83.9686
,"5373 WYDELLA RD SW LILBURN, GA 30047-0000",33.8636,-84.14426
,"2900 ROSEBUD ROAD LOGANVILLE, GA 30052",33.86563,-83.95582
,"701 COLE DR LILBURN, GA 30047-0000",33.86568,-84.11939
,"2849 MOUNTAIN VIEW RD SNELLVILLE, GA 30078-0000",33.86764,-84.03537
,"4000 FIVE FORKS TRICKUM ROAD LILBURN, GA 30047-0000",33.86824,-84.09023
,"5150 ARCADO RD LILBURN, GA 30047-0000",33.8719,-84.1398
,"1405 HEWATT RD LILBURN, GA 30047-0000",33.87253,-84.05482
,"4651 BRITT RD NORCROSS, GA 30071-0000",33.88059,-84.19717
,"4434 BRITT RD TUCKER, GA 30084-0000",33.88267,-84.20779
,"3250 RIVER DR SW LAWRENCEVILLE, GA 30044-0000",33.88374,-84.06927
,"1004 OAK RD SW LILBURN, GA 30047-0000",33.88479,-84.05813
,"800 GRAYSON PKWY GRAYSON, GA 30017-0000",33.88565,-83.96484
,"401 NORTH RIVER DRIVE LILBURN, GA 30047-0000",33.8857,-84.10009
,"2299 ROSEBUD RD GRAYSON, GA 30017-0000",33.88634,-83.95996
,"2424 WEBB GIN HOUSE RD SNELLVILLE, GA 30078-0000",33.88673,-84.03632
,"151 ARCADO RD LILBURN, GA 30047-0000",33.88814,-84.11361
,"5255 HWY 29 LILBURN, GA 30047-0000",33.88975,-84.15655
,"285 MAIN ST LILBURN, GA 30047-0000",33.88988,-84.14145
,"1500 NORTH RD SNELLVILLE, GA 30078-0000",33.89056,-84.00567
,"555 OZORA RD LOGANVILLE, GA 30052-0000",33.89091,-83.91288
,"555 GRAYSON PKWY GRAYSON, GA 30017-0000",33.89251,-83.96194
,"2780 FIVE FORKS TRICKM RD LAWRENCEVILLE, GA 30044-0000",33.89339,-84.05498
,"2142 LOGANVILLE HWY GRAYSON, GA 30017-0000",33.89397,-83.95355
,"1012 ROCKBRIDGE RD NORCROSS, GA 30093-0000",33.89649,-84.18563
,"6066 ROCKBRIDGE SCHOOL RD NORCROSS, GA 30093-0000",33.89924,-84.19562
,"2516 FIVE FORKS TRICKM RD LAWRENCEVILLE, GA 30044-0000",33.89959,-84.04863
,"314 ARCADO RD LILBURN, GA 30047-0000",33.90146,-84.11957
,"1075 ROCKY RD LAWRENCEVILLE, GA 30044-0000",33.90256,-84.01472
,"4355 LAWRENCEVILLE HWY LILBURN, GA 30047-0000",33.90379,-84.1281
,"5300 WILLIAMS RD NORCROSS, GA 30093-0000",33.90583,-84.16926
,"2149 FIVE FORKS TRICKUM RD LAWRENCEVILLE, GA 30044-0000",33.90848,-84.03922
,"5990 OAKBROOK PARKWAY NORCROSS, GA 30093-0000",33.91186,-84.20227
,"1400 GRAYSON HWY LAWRENCEVILLE, GA 30045-0000",33.91215,-83.96835
,"925 BEAVER RUIN RD LILBURN, GA 30047-0000",33.91472,-84.13743
,"675 PLEASANT HILL RD NW LILBURN, GA 30047-0000",33.91668,-84.11428
,"85 GLOSTER RD NW LAWRENCEVILLE, GA 30044-0000",33.91722,-84.07112
,"3000 SUGARLOAF PKWY LAWRENCEVILLE, GA 30045-0000",33.91796,-84.00389
,"3305 LAWRENCEVILLE HWY LAWRENCEVILLE, GA 30044-0000",33.91798,-84.09423
,"444 BETHESDA CHURCH RD LAWRENCEVILLE, GA 30044-0000",33.91851,-84.08445
,"2405 SUGARLOAF PKWY LAWRENCEVILLE, GA 30045-0000",33.91977,-83.98831
,"5025 GEORGIA BELLE CT NORCROSS, GA 30093-0000",33.92003,-84.16698
,"1766 NEW HOPE ROAD LAWRENCEVILLE, GA 30045",33.92419,-83.91743
,"1200 BEAVER RUIN RD NORCROSS, GA 30093-0000",33.92469,-84.13741
,"525 BETHESDA SCHOOL RD LAWRENCEVILLE, GA 30044-0000",33.92552,-84.08577
,"3495 SUGARLOAF PKWY LAWRENCEVILLE, GA 30044-0000",33.92605,-84.01844
,"3500 CRUSE RD LAWRENCEVILLE, GA 30044-0000",33.9264,-84.10772
,"6224 JIMMY CARTER BLVD NORCROSS, GA 30071-0000",33.92807,-84.22288
,"1978 BEAVER RUIN RD NORCROSS, GA 30071-0000",33.93456,-84.17352
,"2140 BEAVER RUIN RD NORCROSS, GA 30071-0000",33.93569,-84.18275
,"1331 PLEASANT HILL RD LAWRENCEVILLE, GA 30044-0000",33.93652,-84.12323
,"182 HUNTER ST NORCROSS, GA 30071-0000",33.93771,-84.22109
,"321 PRICE PLACE NORCROSS, GA 30071-0000",33.9412,-84.20221
,"1025 HERRINGTON RD LAWRENCEVILLE, GA 30044-0000",33.94273,-84.08247
,"1390 MONFORT RD LAWRENCEVILLE, GA 30046-0000",33.94385,-84.03013
,"3550 NEW HOPE RD DACULA, GA 30019-0000",33.94404,-83.85741
,"250 GWINNETT DR LAWRENCEVILLE, GA 30045-0000",33.9443,-83.99626
,"5105 WINTERS CHAPEL RD PEACHTREE CORNERS, GA 30360-0000",33.94579,-84.26948
,"1982 OLD NORCROSS RD LAWRENCEVILLE, GA 30044-0000",33.95082,-84.06204
,"1755 CENTERVIEW DR DULUTH, GA 30096-0000",33.95095,-84.12167
,"2570 HARBINS RD DACULA, GA 30019-0000",33.95242,-83.83134
,"970 MCELVANEY LN LAWRENCEVILLE, GA 30044-0000",33.95302,-84.06018
,"395 W CROGAN ST LAWRENCEVILLE, GA 30046-0000",33.95513,-83.996
,"165 CLAYTON ST LAWRENCEVILLE, GA 30046-0000",33.9554,-83.98741
,"100 E CROGAN ST LAWRENCEVILLE, GA 30046-0000",33.95697,-83.97902
,"3737 HOLCOMB BRIDGE RD PEACHTREE CORNERS, GA 30092-0000",33.96024,-84.24973
,"2525 GRAVITT RD DULUTH, GA 30096-0000",33.96087,-84.15971
,"450 ROCK HOUSE RD LAWRENCEVILLE, GA 30045-0000",33.96275,-83.93271
,"6625 WINTERS CHAPEL RD PEACHTREE CORNERS, GA 30360-0000",33.96306,-84.26734
,"5995 CROOKED CREEK RD PEACHTREE CORNERS, GA 30092-0000",33.96315,-84.23669
,"5300 SPALDING DR NORCROSS, GA 30092-0000",33.96662,-84.21273
,"5918 SPALDING DR PEACHTREE CORNERS, GA 30092-0000",33.96679,-84.23763
,"6060 SPALDING DRIVE PEACHTREE CORNERS, GA 30092-0000",33.96896,-84.24493
,"684 WINDER HWY LAWRENCEVILLE, GA 30045-0000",33.96975,-83.96151
,"1001 DULUTH HWY LAWRENCEVILLE, GA 30043-0000",33.96976,-84.02922
,"4650 PEACHTREE INDUSTRIAL BLVD NORCROSS, GA 30071-0000",33.97069,-84.18524
,"2750 PLEASANT HILL RD DULUTH, GA 30096-0000",33.97391,-84.1471
,"1065 WALTHER BLVD LAWRENCEVILLE, GA 30043-0000",33.97417,-84.01633
,"4480 PEACHTREE CORNERS CIR PEACHTREE CORNERS, GA 30092-0000",33.97826,-84.22944
,"1670 SEVER RD LAWRENCEVILLE, GA 30043-0000",33.9799,-84.0552
,"1736 SEVER ROAD LAWRENCEVILLE, GA 30043-0000",33.98135,-84.05685
,"3123 CLAIBORNE DR DULUTH, GA 30096-0000",33.9864,-84.1334
,"1970 SEVER RD LAWRENCEVILLE, GA 30043-0000",33.9878,-84.06151
,"1570 LAWRENCEVILLE SUWANEE RD LAWRENCEVILLE, GA 30043-0000",33.98817,-84.02781
,"6400 SUGARLOAF PKWY DULUTH, GA 30097-0000",33.9896,-84.09423
,"3030 BUNTEN RD DULUTH, GA 30096-0000",33.99598,-84.11914
,"2735 OLD AUBURN RD DACULA, GA 30019-0000",33.99611,-83.89283
,"3700 PLEASANT HILL RD DULUTH, GA 30096-0000",33.99678,-84.16062
,"1707 HURRICANE SHOALS RD DACULA, GA 30019-0000",33.99693,-83.93721
,"202 HEBRON CHURCH RD NE DACULA, GA 30019-0000",33.99779,-83.90891
,"4525 E JONES BRIDGE RD PEACHTREE CORNERS, GA 30092-0000",33.99846,-84.22903
,"4901 E JONES BRIDGE RD PEACHTREE CORNERS, GA 30092-0000",34.0002,-84.23456
,"170 RUSSELL RD LAWRENCEVILLE, GA 30043-0000",34.00112,-84.00864
,"3180 BUNTEN RD DULUTH, GA 30096-0000",34.00113,-84.12042
,"3167 MAIN ST DULUTH, GA 30096-0000",34.00179,-84.14689
,"3142 HILL STREET DULUTH, GA 30096-0000",34.00281,-84.14644
,"2074 QUINTON PL SUWANEE, GA 30024-0000",34.00639,-84.02611
,"2980 OLD PEACHTREE RD DACULA, GA 30019-0000",34.00928,-83.92565
,"600 TAYLOR SCHOOL DR LAWRENCEVILLE, GA 30043-0000",34.01032,-83.99593
,"1950 OLD PEACHTREE RD DULUTH, GA 30097-0000",34.01365,-84.10397
,"455 CAMP PERRIN RD LAWRENCEVILLE, GA 30043-0000",34.01547,-84.00228
,"75 TAYLOR RD SUWANEE, GA 30024-0000",34.01761,-84.02302
,"2930 ALBION FARM RD DULUTH, GA 30097-0000",34.01814,-84.14785
,"1549 PROSPECT RD LAWRENCEVILLE, GA 30043-0000",34.01998,-83.95876
,"142 OLD PEACHTREE RD SUWANEE, GA 30024-0000",34.02425,-84.04817
,"2020 BUFORD DR LAWRENCEVILLE, GA 30043-0000",34.02511,-83.98815
,"1026 OLD PEACHTREE RD LAWRENCEVILLE, GA 30043-0000",34.03473,-83.99245
,"4080 FENCE RD AUBURN, GA 30011-0000",34.03838,-83.86684
,"1350 PEACHTREE INDUSTRIAL BLVD SUWANEE, GA 30024-0000",34.04043,-84.09714
,"3268 SMITHTOWN RD NE SUWANEE, GA 30024-0000",34.04344,-84.04069
,"1725 AUBURN ROAD DACULA, GA 30019-0000",34.0447,-83.92447
,"1100 ROCK SPRINGS RD LAWRENCEVILLE, GA 30043-0000",34.04664,-83.99847
,"1450 PINE RD DACULA, GA 30019-0000",34.05673,-83.88739
,"361 MAIN ST SUWANEE, GA 30024-0000",34.05764,-84.0672
,"55 BUFORD HWY SUWANEE, GA 30024-0000",34.06069,-84.0617
,"2442 S PUCKETTS MILL RD DACULA, GA 30019-0000",34.06494,-83.93218
,"4500 BRASELTON HIGHWAY HOSCHTON, GA 30548",34.07605,-83.87149
,"4404 BRASELTON HIGHWAY HOSCHTON, GA 30548-0000",34.07663,-83.87736
,"4844 SUWANEE DAM RD SUWANEE, GA 30024-0000",34.0831,-84.074
,"3809 SARDIS CHURCH RD BUFORD, GA 30519-0000",34.08312,-83.90687
,"918 BUFORD HWY BUFORD, GA 30518-0000",34.08604,-84.03227
,"2707 KILGORE ROAD BUFORD, GA 30519-0000",34.08914,-83.95739
,"4973 WEST PRICE RD SUWANEE, GA 30024-0000",34.09024,-84.07124
,"5445 SETTLES BRIDGE RD SUWANEE, GA 30024-0000",34.09369,-84.09714
,"3946 S BOGAN RD BUFORD, GA 30519-0000",34.09666,-83.98005
,"3443 RIDGE ROAD BUFORD, GA 30519-0000",34.09729,-83.93638
,"939 LEVEL CREEK RD SUGAR HILL, GA 30518-0000",34.09976,-84.04004
,"2723 N BOGAN RD BUFORD, GA 30519-0000",34.1073,-83.96918
,"5091 NELSON BROGDON BLVD SUGAR HILL, GA 30518-0000",34.1104,-84.03426
,"2300 BUFORD HIGHWAY BUFORD, GA 30518-0000",34.11584,-83.99484
,"5695 SYCAMORE RD SUGAR HILL, GA 30518-0000",34.12547,-84.04483
,"2018 BUFORD DAM RD BUFORD, GA 30518-0000",34.14537,-84.02618
,"6482 SUWANEE DAM RD BUFORD, GA 30518-0000",34.14795,-84.06533
