name,address,lat,lon
,"6910 MCGINNIS FERRY RD ALPHARETTA, GA 30005",34.0707,-84.17528
,"5745 OLDE ATLANTA PKWY SUWANEE, GA 30024",34.08168,-84.12306
,"810 NICHOLS RD SUWANEE, GA 30024",34.10794,-84.14293
,"2100 PEACHTREE PKWY CUMMING, GA 30041",34.11145,-84.18102
,"1950 SHARON RD CUMMING, GA 30041",34.11558,-84.16396
,"200 JAMES RD ALPHARETTA, GA 30004",34.127,-84.24624
,"4444 FRONT NINE DR CUMMING, GA 30041",34.13542,-84.12326
,"4110 CAROLENE WAY CUMMING, GA 30040",34.15078,-84.21041
,"1979 BUFORD HWY CUMMING, GA 30041",34.15875,-84.10925
,"6755 MAJORS RD CUMMING, GA 30040",34.16579,-84.20575
,"5100 POST RD CUMMING, GA 30040-0000",34.2028,-84.21935
,"100 MAIN ST CUMMING, GA 30040",34.20731,-84.13951
,"1597 SAWNEE DR CUMMING, GA 30040",34.22535,-84.14846
,"1605 CANTON HWY CUMMING, GA 30040",34.23904,-84.17685
,"2300 KEITH BRIDGE RD CUMMING, GA 30040",34.24563,-84.10195
,"3995 WATSON RD CUMMING, GA 30028",34.25932,-84.21618
,"3560 SETTINGDOWN RD CUMMING, GA 30028",34.27135,-84.09157
,"5395 KEITH BRIDGE RD CUMMING, GA 30041",34.28675,-84.03516
,"5345 SETTINGDOWN RD CUMMING, GA 30041",34.3053,-84.06753
,"6905 CONCORD RD CUMMING, GA 30028",34.32963,-84.12099
