name,address,lat,lon
,"135 RIVERSIDE PARKWAY AUSTELL, GA 30168-0000",33.77171,-84.55732
,"821 SOUTH GORDON RD SW AUSTELL, GA 30168-0000",33.78896,-84.5781
,"285 SOUTH GORDON RD SW MABLETON, GA 30126-0000",33.79032,-84.56132
,"6114 MABLETON PKWY MABLETON, GA 30126-0000",33.80483,-84.56967
,"50 VETERANS MEM. HWY MABLETON, GA 30126-0000",33.81358,-84.55377
,"2625 JOE JERKINS BLVD AUSTELL, GA 30106-0000",33.81428,-84.63061
,"620 LIONS CLUB DR MABLETON, GA 30126-0000",33.8187,-84.5716
,"5220 CHURCH ST SW MABLETON, GA 30126-0000",33.82444,-84.58393
,"805 CLAY RD. MABLETON, GA 30126-0000",33.82523,-84.57766
,"5235 AUSTELL-POWDER SPRINGS RD AUSTELL, GA 30106-0000",33.82804,-84.64391
,"5083 HIRAM LITHIA SPRINGS RD POWDER SPRINGS, GA 30127-0000",33.83075,-84.68805
,"555 NICKAJACK ROAD MABLETON, GA 30126-0000",33.83473,-84.53962
,"4803 FLOYD RD MABLETON, GA 30126-1399",33.83824,-84.57487
,"4605 EWING RD AUSTELL, GA 30106-0000",33.84228,-84.63456
,"4555 MAVELL RD SMYRNA, GA 30082-0000",33.84363,-84.51575
,"4479 ATLANTA RD SE SMYRNA, GA 30080-0000",33.84541,-84.48938
,"4300 KING SPRINGS RD SMYRNA, GA 30082-0000",33.84929,-84.52181
,"4100 KING SPRINGS RD SMYRNA, GA 30082-0000",33.85453,-84.51837
,"4052 HIRAM-LITHIA SPRINGS RD POWDER SPRINGS, GA 30127-0000",33.85483,-84.71882
,"2000 EAST-WEST CONNECTOR AUSTELL, GA 30106-0000",33.85512,-84.61398
,"4181 ATLANTA ST POWDER SPRINGS, GA 30127-0000",33.85656,-84.67611
,"4025 SOUTH HURT ROAD SMYRNA, GA 30082-0000",33.85698,-84.56296
,"4330 NORTH AVE POWDER SPRINGS, GA 30127-0000",33.86001,-84.67937
,"3795 COCHISE DR ATLANTA, GA 30339-0000",33.86072,-84.45687
,"4290 PACES FERRY RD ATLANTA, GA 30339-0000",33.86429,-84.46538
,"3640 SPRING HILL PKWY SMYRNA, GA 30080-0000",33.86508,-84.48501
,"3265 BROWN ROAD SE SMYRNA, GA 30080-0000",33.87381,-84.52677
,"3269 OLD CONCORD RD SE SMYRNA, GA 30082-0000",33.87474,-84.53696
,"160 LEGION DR SMYRNA, GA 30080-0000",33.8764,-84.51849
,"3820 MACEDONIA RD POWDER SPRINGS, GA 30127-0000",33.87647,-84.66476
,"775 SMYRNA POWDER SPRINGS RD MARIETTA, GA 30060-0000",33.87914,-84.57569
,"810 CHURCH ST SE SMYRNA, GA 30080",33.88012,-84.5298
,"2364 POWDER SPRINGS RD SW MARIETTA, GA 30064-0000",33.88028,-84.62193
,"1030 MILFORD CHURCH RD MARIETTA, GA 30060-0000",33.88107,-84.58387
,"2420 SPRING RD SMYRNA, GA 30080-0000",33.88263,-84.48349
,"2825 PARK RD SMYRNA, GA 30080-0000",33.88388,-84.48358
,"200 VILLAGE GREEN CIR SMYRNA, GA 30080-0000",33.88628,-84.51689
,"2730 CUMBERLAND BLVD SE SMYRNA, GA 30080-0000",33.88642,-84.47706
,"2720 SOUTH COBB DR SE SMYRNA, GA 30080",33.8871,-84.53638
,"2025 POWDER SPRINGS RD MARIETTA, GA 30064-0000",33.88823,-84.61203
,"1243 BELMONT AVENUE SMYRNA, GA 30080",33.8941,-84.51752
,"1885 ROSWELL ST., SE SMYRNA, GA 30080-0000",33.89451,-84.50065
,"230 CRESSON DR MARIETTA, GA 30060-0000",33.89647,-84.55457
,"4665 MACLAND RD POWDER SPRINGS, GA 30127-0000",33.90082,-84.69068
,"3732 MACLAND RD POWDER SPRINGS, GA 30127-0000",33.90184,-84.66173
,"4075 MACLAND RD POWDER SPRINGS, GA 30127-0000",33.90204,-84.66939
,"2121 WEST SANDTOWN RD MARIETTA, GA 30064-0000",33.90266,-84.63348
,"1465 BRANDON DRIVE MARIETTA, GA 30008-0000",33.91761,-84.56467
,"1350 JOHN WARD RD MARIETTA, GA 30064-0000",33.92161,-84.62081
,"1245 VILLA RICA RD MARIETTA, GA 30064-0000",33.92198,-84.65306
,"1150 POWDER SPRINGS ST MARIETTA, GA 30064-0000",33.92605,-84.57444
,"3825 LUTHER WARD ROAD POWDER SPRINGS, GA 30127-0000",33.92634,-84.66344
,"3320 PAPER MILL RD MARIETTA, GA 30067-0000",33.93601,-84.45337
,"4845 DALLAS HWY POWDER SPRINGS, GA 30127-0000",33.94221,-84.69509
,"4915 DALLAS HWY POWDER SPRINGS, GA 30127-0000",33.94226,-84.69524
,"2570 LOWER ROSWELL ROAD MARIETTA, GA 30067-0000",33.94229,-84.47731
,"548 SOUTH MARIETTA PKWY MARIETTA, GA 30060-0000",33.94293,-84.53739
,"2450 LOWER ROSWELL RD NE MARIETTA, GA 30067",33.94365,-84.48082
,"285 VICTORY DR MARIETTA, GA 30060-0000",33.94517,-84.53119
,"287 MT CALVARY RD MARIETTA, GA 30064-0000",33.94705,-84.6092
,"1171 WHITLOCK AVE MARIETTA, GA 30064-0000",33.9484,-84.58604
,"4814 PAPER MILL RD MARIETTA, GA 30067-0000",33.94871,-84.41452
,"2051 LOWER ROSWELL RD MARIETTA, GA 30068-0000",33.95016,-84.49301
,"3401 LOWER ROSWELL RD MARIETTA, GA 30068-0000",33.95155,-84.45286
,"566 WHITLOCK AVE NW MARIETTA, GA 30064-0000",33.95255,-84.56947
,"165 LEMON ST MARIETTA, GA 30060-0000",33.95565,-84.54822
,"63 MAPLE AVENUE MARIETTA, GA 30064",33.95764,-84.55387
,"492 NORTH MARIETTA PARKWAY MARIETTA, GA 30060-0000",33.95826,-84.53754
,"5950 NICHOLS RD POWDER SPRINGS, GA 30127-0000",33.96012,-84.72412
,"4400 LOWER ROSWELL RD MARIETTA, GA 30068-0000",33.96289,-84.42291
,"5145 DUE WEST RD POWDER SPRINGS, GA 30127-0000",33.96502,-84.69841
,"4385 LOWER ROSWELL RD MARIETTA, GA 30068-0000",33.96521,-84.42318
,"2330 BURNT HICKORY ROAD MARIETTA, GA 30064-0000",33.96674,-84.6197
,"675 HOLT RD MARIETTA, GA 30068-0000",33.96677,-84.47997
,"4500 DUE WEST RD KENNESAW, GA 30152-0000",33.96709,-84.68309
,"3956 DUE WEST RD MARIETTA, GA 30064-0000",33.9682,-84.6683
,"700 OLD MOUNTAIN RD KENNESAW, GA 30152-0000",33.97059,-84.68959
,"816 PICKENS INDUSTRIAL DR MARIETTA, GA 30062-0000",33.97099,-84.52398
,"955 JOHNSON FERRY RD MARIETTA, GA 30068-0000",33.9723,-84.4148
,"3499 ROBINSON RD MARIETTA, GA 30068-0000",33.97383,-84.45443
,"836 NEW SALEM RD NW KENNESAW, GA 30152-0000",33.9744,-84.6166
,"1190 INDIAN HILLS PKWY MARIETTA, GA 30068",33.97749,-84.43541
,"1200 INDIAN HILLS PKWY MARIETTA, GA 30068-0000",33.97758,-84.43651
,"1083 ALLGOOD RD NE MARIETTA, GA 30062-0000",33.97769,-84.5232
,"1000 EMC PKWY NE MARIETTA, GA 30060-0000",33.97881,-84.5544
,"1700 ALLGOOD RD MARIETTA, GA 30062-0000",33.98138,-84.5028
,"1415 OLD CANTON RD MARIETTA, GA 30062-0000",33.98344,-84.46345
,"1480 BELLS FERRY RD MARIETTA, GA 30066-0000",33.98626,-84.55408
,"1345 MARS HILL RD ACWORTH, GA 30101-0000",33.98691,-84.71989
,"2720 PINE MOUNTAIN CIRCLE KENNESAW, GA 30152-0000",33.98823,-84.63271
,"1501 KENNESAW DUE WEST RD KENNESAW, GA 30152-0000",33.99093,-84.63074
,"1795 JOHNSON FERRY RD MARIETTA, GA 30062",33.99219,-84.42945
,"1770 JOHNSON FERRY RD MARIETTA, GA 30062-0000",33.99276,-84.42847
,"3737 STILESBORO RD NW KENNESAW, GA 30152-0000",33.99672,-84.6601
,"1750 DENNIS KEMP LN KENNESAW, GA 30152-0000",33.99893,-84.7022
,"3450 STILESBORO ROAD KENNESAW, GA 30152-0000",33.99902,-84.64945
,"4905 ROSWELL RD NE MARIETTA, GA 30062-0000",33.99933,-84.40783
,"3660 OLD STILESBORO ROAD KENNESAW, GA 30152-0000",33.99976,-84.65773
,"5240 ROSWELL RD MARIETTA, GA 30062-0000",34.00102,-84.39741
,"315 KURTZ RD MARIETTA, GA 30066-0000",34.00333,-84.54238
,"2320 MURDOCK RD MARIETTA, GA 30062-4599",34.00674,-84.46239
,"1630 PIEDMONT RD MARIETTA, GA 30066-0000",34.01485,-84.50403
,"2663 JOHNSON FERRY RD MARIETTA, GA 30062-0000",34.01501,-84.43126
,"3005 RING RD NW KENNESAW, GA 30144-0000",34.01741,-84.56781
,"2825 SANDY PLAINS RD MARIETTA, GA 30066-0000",34.01907,-84.49149
,"1100 PIEDMONT RD NE MARIETTA, GA 30066-0000",34.01979,-84.5192
,"2881 CANTON RD MARIETTA, GA 30066-0000",34.02049,-84.52926
,"2922 SANDY PLAINS RD MARIETTA, GA 30066-0000",34.02075,-84.48829
,"2753 WATTS DR. KENNESAW, GA 30144-0000",34.02167,-84.62101
,"3100 JAYCEE DR MARIETTA, GA 30066-0000",34.02449,-84.52014
,"2958 NORTH MAIN STREET KENNESAW, GA 30144-0000",34.02593,-84.61819
,"2891 MARS HILL RD ACWORTH, GA 30101-0000",34.02625,-84.70069
,"2975 COBB PARKWAY NW KENNESAW, GA 30152-0000",34.02663,-84.63974
,"1455 BEN KING RD KENNESAW, GA 30144-0000",34.02773,-84.59304
,"4207 SHALLOWFORD RD MARIETTA, GA 30062-0000",34.02807,-84.42783
,"3320 SANDY PLAINS RD MARIETTA, GA 30066-0000",34.03133,-84.46575
,"3332 SANDY PLAINS ROAD MARIETTA, GA 30066-0000",34.03219,-84.46615
,"3662 SHALLOWFORD RD MARIETTA, GA 30062-0000",34.03272,-84.44393
,"3206 OLD HIGHWAY 41 NW KENNESAW, GA 30144-0000",34.03315,-84.63863
,"3393 CANTON RD MARIETTA, GA 30066-0000",34.03378,-84.52818
,"1040 BLACKWELL RD MARIETTA, GA 30066-0000",34.03462,-84.51911
,"3481 CAMPUS LOOP RD KENNESAW, GA 30144-0000",34.03533,-84.58732
,"3413 BLUE SPRINGS ROAD KENNESAW, GA 30144-0000",34.03613,-84.65216
,"3755 SANDY PLAINS RD MARIETTA, GA 30066-0000",34.04184,-84.46038
,"2240 SHALLOWFORD RD MARIETTA, GA 30066-0000",34.04272,-84.48555
,"1940 SHALLOWFORD RD MARIETTA, GA 30066-0000",34.04626,-84.49377
,"3737 DALLAS ACWORTH HIGHWAY NW ACWORTH, GA 30101-0000",34.0472,-84.72844
,"1686 SHALLOWFORD RD MARIETTA, GA 30066-0000",34.04838,-84.50174
,"3900 SOUTH MAIN STREET ACWORTH, GA 30101-0000",34.04996,-84.66285
,"4101 SANDY PLAINS RD MARIETTA, GA 30066-0000",34.05067,-84.45392
,"4120 CANTON RD MARIETTA, GA 30066-0000",34.0524,-84.52445
,"950 SHILOH RD KENNESAW, GA 30144-0000",34.05269,-84.57753
,"4255 SANDY PLAINS RD MARIETTA, GA 30066-0000",34.05413,-84.44918
,"4201 LEGACY PARK CIR KENNESAW, GA 30144-0000",34.0558,-84.63306
,"75 HAWKINS STORE RD NW KENNESAW, GA 30144",34.0567,-84.55138
,"4310 MOON STATION LANE ACWORTH, GA 30101-0000",34.05832,-84.6179
,"1210 WOOTEN LAKE RD KENNESAW, GA 30144-0000",34.05935,-84.586
,"4495 SANDY PLAINS RD MARIETTA, GA 30066-0000",34.0601,-84.43569
,"4425 BEACH STREET ACWORTH, GA 30101-0000",34.06037,-84.68289
,"4644 SANDY PLAINS RD MARIETTA, GA 30066-0000",34.06125,-84.42984
,"4770 LEE WATERS RD MARIETTA, GA 30066-0000",34.06426,-84.51312
,"4575 WADE GREEN RD ACWORTH, GA 30102-0000",34.06548,-84.59132
,"50 SHALLOWFORD RD KENNESAW, GA 30144-0000",34.06954,-84.54839
,"2300 JAMERSON RD MARIETTA, GA 30066-0000",34.07402,-84.4835
